NORAD_CAT_ID,OBJECT_NAME,OBJECT_TYPE,EPOCH,MEAN_MOTION,ECCENTRICITY,INCLINATION,RA_OF_ASC_NODE,ARG_OF_PERICENTER,MEAN_ANOMALY,BSTAR,MEAN_MOTION_DOT,MEAN_MOTION_DDOT,TLE_LINE0,TLE_LINE1,TLE_LINE2,SEMIMAJOR_AXIS,PERIOD,APOGEE,PERIGEE,DECAYED
56489.0,STARLINK-5923,PAYLOAD,2024-07-13 04:33:18,14.98333505,0.0003855,69.999,188.6375,265.9726,94.0993,4.3865e-05,4.3e-06,0.0,0 STARLINK-5923,1 56489U 23064AT  24195.18979470  .00000430  00000-0  43865-4 0  9990,2 56489  69.9990 188.6375 0003855 265.9726  94.0993 14.98333505 66043,6950.182,96.107,574.726,569.368,0.0
56489.0,STARLINK-5923,PAYLOAD,2024-07-13 09:21:42,14.98334287,0.0003849,69.999,188.1326,266.0538,94.0181,5.0239e-05,5.06e-06,0.0,0 STARLINK-5923,1 56489U 23064AT  24195.39007362  .00000506  00000-0  50239-4 0  9992,2 56489  69.9990 188.1326 0003849 266.0538  94.0181 14.98334287 65710,6950.18,96.107,574.72,569.37,0.0
56489.0,STARLINK-5923,PAYLOAD,2024-07-13 22:10:46,14.98333797,0.0003858,69.999,186.7861,265.9506,94.1212,8.32e-05,9e-06,0.0,0 STARLINK-5923,1 56489U 23064AT  24195.92415284  .00000900  00000-0  83200-4 0  9999,2 56489  69.9990 186.7861 0003858 265.9506  94.1212 14.98333797 65790,6950.181,96.107,574.728,569.365,0.0
56489.0,STARLINK-5923,PAYLOAD,2024-07-14 04:35:19,14.98331761,0.0003853,69.999,186.1126,265.5699,94.502,9.8498e-05,1.082e-05,0.0,0 STARLINK-5923,1 56489U 23064AT  24196.19119383  .00001082  00000-0  98498-4 0  9997,2 56489  69.9990 186.1126 0003853 265.5699  94.5020 14.98331761 66197,6950.187,96.107,574.73,569.375,0.0
56489.0,STARLINK-5923,PAYLOAD,2024-07-14 09:23:43,14.98335111,0.0003843,69.999,185.6077,265.6023,94.4697,0.00011843,1.32e-05,0.0,0 STARLINK-5923,1 56489U 23064AT  24196.39147103  .00001320  00000-0  11843-3 0  9993,2 56489  69.9990 185.6077 0003843 265.6023  94.4697 14.98335111 65862,6950.177,96.107,574.713,569.371,0.0
56489.0,STARLINK-5923,PAYLOAD,2024-07-15 04:37:20,14.98331424,0.0003788,69.9992,183.5878,265.4185,94.6542,3.1316e-05,2.81e-06,0.0,0 STARLINK-5923,1 56489U 23064AT  24197.19259456  .00000281  00000-0  31316-4 0  9990,2 56489  69.9992 183.5878 0003788 265.4185  94.6542 14.98331424 66343,6950.188,96.107,574.686,569.421,0.0
56489.0,STARLINK-5923,PAYLOAD,2024-07-15 09:25:44,14.98333259,0.0003795,69.9993,183.083,265.5614,94.5111,4.9576e-05,4.99e-06,0.0,0 STARLINK-5923,1 56489U 23064AT  24197.39287260  .00000499  00000-0  49576-4 0  9994,2 56489  69.9993 183.0830 0003795 265.5614  94.5111 14.98333259 66016,6950.183,96.107,574.685,569.41,0.0
56489.0,STARLINK-5923,PAYLOAD,2024-07-15 22:14:48,14.98331025,0.0003733,69.9994,181.7365,265.9524,94.1208,2.2691e-05,1.78e-06,0.0,0 STARLINK-5923,1 56489U 23064AT  24197.92695385  .00000178  00000-0  22691-4 0  9997,2 56489  69.9994 181.7365 0003733 265.9524  94.1208 14.98331025 66091,6950.19,96.107,574.649,569.46,0.0
56489.0,STARLINK-5923,PAYLOAD,2024-07-16 04:39:21,14.98331484,0.0003731,69.9994,181.0632,265.9012,94.172,2.3938e-05,1.93e-06,0.0,0 STARLINK-5923,1 56489U 23064AT  24198.19399334  .00000193  00000-0  23938-4 0  9994,2 56489  69.9994 181.0632 0003731 265.9012  94.1720 14.98331484 66493,6950.188,96.107,574.646,569.46,0.0
56489.0,STARLINK-5923,PAYLOAD,2024-07-16 07:51:36,14.983339,0.0003682,69.9995,180.7268,265.2563,94.8176,5.6396e-05,5.8e-06,0.0,0 STARLINK-5923,1 56489U 23064AT  24198.32751073  .00000580  00000-0  56396-4 0  9995,2 56489  69.9995 180.7268 0003682 265.2563  94.8176 14.98333900 66154,6950.181,96.107,574.605,569.487,0.0
56489.0,STARLINK-5923,PAYLOAD,2024-07-17 04:41:22,14.9832898,0.0003628,69.9996,178.539,265.1142,94.9603,4.3215e-05,4.23e-06,0.0,0 STARLINK-5923,1 56489U 23064AT  24199.19539408  .00000423  00000-0  43215-4 0  9999,2 56489  69.9996 178.5390 0003628 265.1142  94.9603 14.98328980 66640,6950.196,96.107,574.583,569.54,0.0
56489.0,STARLINK-5923,PAYLOAD,2024-07-17 09:29:45,14.98332443,0.0003606,69.9996,178.0338,266.0517,94.0229,7.9221e-05,8.52e-06,0.0,0 STARLINK-5923,1 56489U 23064AT  24199.39567102  .00000852  00000-0  79221-4 0  9995,2 56489  69.9996 178.0338 0003606 266.0517  94.0229 14.98332443 66317,6950.185,96.107,574.557,569.544,0.0
56489.0,STARLINK-5923,PAYLOAD,2024-07-18 04:43:23,14.98328761,0.0003448,69.9998,176.0137,263.7529,96.3237,2.8812e-05,2.51e-06,0.0,0 STARLINK-5923,1 56489U 23064AT  24200.19679598  .00000251  00000-0  28812-4 0  9992,2 56489  69.9998 176.0137 0003448 263.7529  96.3237 14.98328761 66799,6950.197,96.107,574.458,569.665,0.0
56489.0,STARLINK-5923,PAYLOAD,2024-07-18 07:55:39,14.98331196,0.000342,69.9999,175.6773,264.3507,95.7262,5.6108e-05,5.77e-06,0.0,0 STARLINK-5923,1 56489U 23064AT  24200.33031386  .00000577  00000-0  56108-4 0  9995,2 56489  69.9999 175.6773 0003420 264.3507  95.7262 14.98331196 66454,6950.189,96.107,574.431,569.677,0.0
56489.0,STARLINK-5923,PAYLOAD,2024-07-18 15:56:19,14.98329978,0.0003601,69.9994,174.835,266.7792,93.2955,3.722e-05,3.51e-06,0.0,0 STARLINK-5923,1 56489U 23064AT  24200.66411482  .00000351  00000-0  37220-4 0  9994,2 56489  69.9994 174.8350 0003601 266.7792  93.2955 14.98329978 66507,6950.193,96.107,574.561,569.555,0.0
56489.0,STARLINK-5923,PAYLOAD,2024-07-19 04:45:24,14.98329965,0.0003609,69.9993,173.4885,266.609,93.4657,2.5116e-05,2.07e-06,0.0,0 STARLINK-5923,1 56489U 23064AT  24201.19819550  .00000207  00000-0  25116-4 0  9992,2 56489  69.9993 173.4885 0003609 266.6090  93.4657 14.98329965 66947,6950.193,96.107,574.566,569.55,0.0
56489.0,STARLINK-5923,PAYLOAD,2024-07-19 07:57:39,14.98334821,0.000358,69.9994,173.1519,266.4816,93.5934,7.8004e-05,8.38e-06,0.0,0 STARLINK-5923,1 56489U 23064AT  24201.33171077  .00000838  00000-0  78004-4 0  9997,2 56489  69.9994 173.1519 0003580 266.4816  93.5934 14.98334821 66600,6950.178,96.107,574.531,569.555,0.0
56489.0,STARLINK-5923,PAYLOAD,2024-07-19 22:22:52,14.98331188,0.0003536,69.9998,171.6375,266.9761,93.0993,4.5597e-05,4.51e-06,0.0,0 STARLINK-5923,1 56489U 23064AT  24201.93255303  .00000451  00000-0  45597-4 0  9990,2 56489  69.9998 171.6375 0003536 266.9761  93.0993 14.98331188 66694,6950.189,96.107,574.512,569.597,0.0
56489.0,STARLINK-5923,PAYLOAD,2024-07-20 04:47:24,14.98334414,0.0003498,69.9997,170.9648,267.0916,92.9843,8.581e-05,9.31e-06,0.0,0 STARLINK-5923,1 56489U 23064AT  24202.19958979  .00000931  00000-0  85810-4 0  9993,2 56489  69.9997 170.9648 0003498 267.0916  92.9843 14.98334414 67091,6950.179,96.107,574.475,569.613,0.0
56489.0,STARLINK-5923,PAYLOAD,2024-07-20 07:59:40,14.98337237,0.0003476,69.9997,170.628,266.8513,93.2248,0.00011504,1.28e-05,0.0,0 STARLINK-5923,1 56489U 23064AT  24202.33310687  .00001280  00000-0  11504-3 0  9993,2 56489  69.9997 170.6280 0003476 266.8513  93.2248 14.98337237 66757,6950.171,96.107,574.451,569.62,0.0
56489.0,STARLINK-5923,PAYLOAD,2024-07-20 22:24:53,14.98325105,0.0003384,70.0001,169.113,267.6434,92.4338,5.3665e-05,5.47e-06,0.0,0 STARLINK-5923,1 56489U 23064AT  24202.93395604  .00000547  00000-0  53665-4 0  9991,2 56489  70.0001 169.1130 0003384 267.6434  92.4338 14.98325105 66844,6950.208,96.107,574.425,569.721,0.0
56489.0,STARLINK-5923,PAYLOAD,2024-07-21 04:49:26,14.98320986,0.000331,70.0,168.4399,267.1737,92.9043,0.00016464,1.872e-05,0.0,0 STARLINK-5923,1 56489U 23064AT  24203.20099598  .00001872  00000-0  16464-3 0  9992,2 56489  70.0000 168.4399 0003310 267.1737  92.9043 14.98320986 67247,6950.221,96.108,574.386,569.785,0.0
56489.0,STARLINK-5923,PAYLOAD,2024-07-21 08:01:42,14.98329696,0.0003343,69.9999,168.1034,267.6401,92.4375,2.0052e-05,1.46e-06,0.0,0 STARLINK-5923,1 56489U 23064AT  24203.33451414  .00000146  00000-0  20052-4 0  9997,2 56489  69.9999 168.1034 0003343 267.6401  92.4375 14.98329696 66905,6950.194,96.107,574.382,569.735,0.0
56489.0,STARLINK-5923,PAYLOAD,2024-07-21 22:26:54,14.98331352,0.0003303,69.9998,166.5886,267.6708,92.4073,6.2092e-07,-8.6e-07,0.0,0 STARLINK-5923,1 56489U 23064AT  24203.93535379 -.00000086  00000-0  62092-6 0  9992,2 56489  69.9998 166.5886 0003303 267.6708  92.4073 14.98331352 66993,6950.189,96.107,574.349,569.758,0.0
56489.0,STARLINK-5923,PAYLOAD,2024-07-22 04:51:26,14.98334207,0.0003112,70.0003,165.9171,262.3833,97.6973,3.7355e-05,3.53e-06,0.0,0 STARLINK-5923,1 56489U 23064AT  24204.20239044  .00000353  00000-0  37355-4 0  9991,2 56489  70.0003 165.9171 0003112 262.3833  97.6973 14.98334207 67395,6950.18,96.107,574.208,569.882,0.0
56489.0,STARLINK-5923,PAYLOAD,2024-07-22 06:27:34,14.98334931,0.0003104,70.0004,165.7489,262.2768,97.8039,4.5324e-05,4.48e-06,0.0,0 STARLINK-5923,1 56489U 23064AT  24204.26914961  .00000448  00000-0  45324-4 0  9995,2 56489  70.0004 165.7489 0003104 262.2768  97.8039 14.98334931 67044,6950.178,96.107,574.2,569.885,0.0
56489.0,STARLINK-5923,PAYLOAD,2024-07-22 22:28:55,14.98329108,0.0003102,70.0003,164.0652,265.3975,94.683,8.4302e-05,9.13e-06,0.0,0 STARLINK-5923,1 56489U 23064AT  24204.93675172  .00000913  00000-0  84302-4 0  9993,2 56489  70.0003 164.0652 0003102 265.3975  94.6830 14.98329108 67144,6950.196,96.107,574.217,569.905,0.0
56489.0,STARLINK-5923,PAYLOAD,2024-07-23 06:29:35,14.98333765,0.0003069,70.0002,163.2237,265.2427,94.8382,0.00012908,1.448e-05,0.0,0 STARLINK-5923,1 56489U 23064AT  24205.27054787  .00001448  00000-0  12908-3 0  9990,2 56489  70.0002 163.2237 0003069 265.2427  94.8382 14.98333765 67559,6950.181,96.107,574.179,569.913,0.0
56489.0,STARLINK-5923,PAYLOAD,2024-07-23 14:30:15,14.98341899,0.0003329,70.0,162.3811,272.6496,87.4282,-0.00010681,-1.368e-05,0.0,0 STARLINK-5923,1 56489U 23064AT  24205.60434708 -.00001368  00000-0 -10681-3 0  9991,2 56489  70.0000 162.3811 0003329 272.6496  87.4282 14.98341899 67242,6950.156,96.106,574.335,569.707,0.0
56489.0,STARLINK-5923,PAYLOAD,2024-07-23 22:30:56,14.98323826,0.0003055,69.9999,161.5397,268.0243,92.0567,0.00025104,2.903e-05,0.0,0 STARLINK-5923,1 56489U 23064AT  24205.93814885  .00002903  00000-0  25104-3 0  9995,2 56489  69.9999 161.5397 0003055 268.0243  92.0567 14.98323826 67294,6950.212,96.107,574.2,569.954,0.0
